{
  "norad_id": 58102,
  "name": "STARLINK-30592",
  "history": [
    {
      "epoch": "2026-03-28T16:42:10.900800Z",
      "apogee_km": 476.25081689280705,
      "perigee_km": 474.21495483451235,
      "latitude_deg": 5.931557338477504e-06,
      "longitude_deg": 0.4424795873343862,
      "height_km": 476.1234828076893,
      "semi_major_axis_km": 6853.36988586366,
      "eccentricity": 0.00014853,
      "inclination_deg": 53.1609,
      "raan_deg": 77.1006,
      "arg_perigee_deg": 89.5906,
      "mean_anomaly_deg": 270.5265,
      "mean_motion_rev_day": 15.30194033
    },
    {
      "epoch": "2026-03-29T05:14:36.822336Z",
      "apogee_km": 476.3101164945783,
      "perigee_km": 474.1773444112605,
      "latitude_deg": -5.961204480120727e-05,
      "longitude_deg": 169.39200292814712,
      "height_km": 476.2046860662995,
      "semi_major_axis_km": 6853.380730452919,
      "eccentricity": 0.0001556,
      "inclination_deg": 53.1612,
      "raan_deg": 74.6732,
      "arg_perigee_deg": 93.3945,
      "mean_anomaly_deg": 266.7233,
      "mean_motion_rev_day": 15.30190401
    },
    {
      "epoch": "2026-03-30T04:45:24.491232Z",
      "apogee_km": 476.3284137451883,
      "perigee_km": 474.1362950234952,
      "latitude_deg": -8.113736220959707e-06,
      "longitude_deg": 171.1768670116356,
      "height_km": 476.2411866173286,
      "semi_major_axis_km": 6853.369354384342,
      "eccentricity": 0.00015993,
      "inclination_deg": 53.1622,
      "raan_deg": 70.1223,
      "arg_perigee_deg": 95.8109,
      "mean_anomaly_deg": 264.3074,
      "mean_motion_rev_day": 15.30194211
    },
    {
      "epoch": "2026-03-30T15:43:47.030880Z",
      "apogee_km": 476.374645670865,
      "perigee_km": 474.1075481963999,
      "latitude_deg": -3.44834632096661e-05,
      "longitude_deg": 4.008190568483182,
      "height_km": 476.29901999294515,
      "semi_major_axis_km": 6853.378096933632,
      "eccentricity": 0.0001654,
      "inclination_deg": 53.1626,
      "raan_deg": 67.9982,
      "arg_perigee_deg": 98.1186,
      "mean_anomaly_deg": 262.0002,
      "mean_motion_rev_day": 15.30191283
    },
    {
      "epoch": "2026-03-31T15:14:35.066112Z",
      "apogee_km": 476.1103262623901,
      "perigee_km": 474.37779153070005,
      "latitude_deg": 6.575317893171345e-05,
      "longitude_deg": 5.794461045214258,
      "height_km": 476.2635735485903,
      "semi_major_axis_km": 6853.381058896544,
      "eccentricity": 0.0001264,
      "inclination_deg": 53.1614,
      "raan_deg": 63.4502,
      "arg_perigee_deg": 98.048,
      "mean_anomaly_deg": 262.0665,
      "mean_motion_rev_day": 15.30190291
    },
    {
      "epoch": "2026-04-01T14:45:22.863744Z",
      "apogee_km": 476.0296564814862,
      "perigee_km": 474.4506383867183,
      "latitude_deg": -1.8973841045509752e-05,
      "longitude_deg": 7.578886415218624,
      "height_km": 476.2586142226036,
      "semi_major_axis_km": 6853.377147434102,
      "eccentricity": 0.0001152,
      "inclination_deg": 53.1611,
      "raan_deg": 58.8995,
      "arg_perigee_deg": 98.7496,
      "mean_anomaly_deg": 261.3635,
      "mean_motion_rev_day": 15.30191601
    },
    {
      "epoch": "2026-04-02T14:16:10.584480Z",
      "apogee_km": 476.0819471791074,
      "perigee_km": 474.3786112755288,
      "latitude_deg": 3.073432647907925e-05,
      "longitude_deg": 9.363132837332515,
      "height_km": 476.20245362765394,
      "semi_major_axis_km": 6853.367279227318,
      "eccentricity": 0.00012427,
      "inclination_deg": 53.1612,
      "raan_deg": 54.3482,
      "arg_perigee_deg": 94.9802,
      "mean_anomaly_deg": 265.1341,
      "mean_motion_rev_day": 15.30194906
    },
    {
      "epoch": "2026-04-03T13:46:58.831392Z",
      "apogee_km": 476.09489495968955,
      "perigee_km": 474.38018065033066,
      "latitude_deg": -6.834884792383369e-06,
      "longitude_deg": 11.145615184278116,
      "height_km": 476.1428782785529,
      "semi_major_axis_km": 6853.37453780501,
      "eccentricity": 0.0001251,
      "inclination_deg": 53.1613,
      "raan_deg": 49.7974,
      "arg_perigee_deg": 90.4746,
      "mean_anomaly_deg": 269.6398,
      "mean_motion_rev_day": 15.30192475
    },
    {
      "epoch": "2026-04-04T21:08:02.218272Z",
      "apogee_km": 476.07502028455565,
      "perigee_km": 474.35071745754794,
      "latitude_deg": 1.2542122622525848e-05,
      "longitude_deg": -106.47362063716535,
      "height_km": 476.1393741490453,
      "semi_major_axis_km": 6853.3498688710515,
      "eccentricity": 0.0001258,
      "inclination_deg": 53.1628,
      "raan_deg": 43.7298,
      "arg_perigee_deg": 91.8687,
      "mean_anomaly_deg": 268.2458,
      "mean_motion_rev_day": 15.30200737
    },
    {
      "epoch": "2026-04-05T03:24:16.381728Z",
      "apogee_km": 476.2378770850064,
      "perigee_km": 474.304941777209,
      "latitude_deg": 3.8454629419436765e-05,
      "longitude_deg": 157.9969594693253,
      "height_km": 475.89336752610774,
      "semi_major_axis_km": 6853.408409431107,
      "eccentricity": 0.00014102,
      "inclination_deg": 53.162,
      "raan_deg": 42.5169,
      "arg_perigee_deg": 73.3936,
      "mean_anomaly_deg": 286.722,
      "mean_motion_rev_day": 15.30181131
    },
    {
      "epoch": "2026-04-05T20:38:50.369280Z",
      "apogee_km": 476.2270171794198,
      "perigee_km": 474.23816932345835,
      "latitude_deg": 2.392864688214346e-06,
      "longitude_deg": -104.68721906191423,
      "height_km": 476.1582689790756,
      "semi_major_axis_km": 6853.369593251439,
      "eccentricity": 0.0001451,
      "inclination_deg": 53.1628,
      "raan_deg": 39.1825,
      "arg_perigee_deg": 91.5877,
      "mean_anomaly_deg": 268.529,
      "mean_motion_rev_day": 15.30194131
    }
  ]
}